QIANFAN-25              
1 61558U 24185G   25209.84832285  .00000271  00000+0  15744-3 0  9996
2 61558  88.9792  93.7024 0008594  31.2545 328.9146 14.05749878 50282
QIANFAN-26              
1 61559U 24185H   25210.21177186  .00000228  00000+0  21564-3 0  9991
2 61559  88.9804  94.5034 0007923  68.4064 291.7946 13.77719285 49897
QIANFAN-27              
1 61560U 24185J   25209.61014947  .00000378  00000+0  14902-3 0  9994
2 61560  88.9793  93.0394 0009645  32.6401 327.5387 14.27119308 50604
QIANFAN-28              
1 61561U 24185K   25209.58175687  .00000649  00000+0  25763-3 0  9998
2 61561  88.9812  93.0356 0008708  35.1438 325.0329 14.27675789 50601
QIANFAN-29              
1 61562U 24185L   25210.16419923  .00000173  00000+0  24857-3 0  9994
2 61562  88.9800  95.4369 0012177  84.8941 275.3600 13.50954085 49357
QIANFAN-30              
1 61563U 24185M   25209.59084167  .00000144  00000+0  20833-3 0  9996
2 61563  88.9805  94.9716 0009687  74.0247 286.1970 13.49925837 49569
QIANFAN-31              
1 61564U 24185N   25209.84825195  .00000153  00000+0  19579-3 0  9994
2 61564  88.9787  94.9642 0009356  71.8222 288.3951 13.57903831 49582
QIANFAN-32              
1 61565U 24185P   25209.78363518  .00000165  00000+0  23786-3 0  9992
2 61565  88.9849  95.0445 0011434  94.4214 265.8244 13.50682444 49567
